IRIDIUM 166             
1 43570U 18061B   24075.39859512  .00000432  00000+0  14730-3 0  9991
2 43570  86.3972  40.9894 0002544  89.9348 270.2139 14.34217421295320
IRIDIUM 158             
1 43571U 18061C   24074.94826987  .00000165  00000+0  51944-4 0  9994
2 43571  86.3973  41.1869 0002427  83.7746 276.3726 14.34217239295226
IRIDIUM 165             
1 43572U 18061D   24074.90387055  .00000191  00000+0  61072-4 0  9991
2 43572  86.3977  41.2362 0002467  83.9110 276.2367 14.34217950295243
IRIDIUM 155             
1 43573U 18061E   24075.84256411  .00000243  00000+0  79826-4 0  9991
2 43573  86.3973  40.7536 0002260  91.7713 268.3741 14.34215379295357
IRIDIUM 154             
1 43574U 18061F   24074.91655627  .00000088  00000+0  24443-4 0  9993
2 43574  86.3979  41.2337 0002140  81.7040 278.4398 14.34216813295262
IRIDIUM 163             
1 43575U 18061G   24075.45567770  .00000171  00000+0  53846-4 0  9997
2 43575  86.3974  40.9496 0002133  86.9308 273.2132 14.34218289295310
IRIDIUM 156             
1 43576U 18061H   24075.43030586  .00000120  00000+0  35760-4 0  9995
2 43576  86.3975  40.9662 0002491  87.2097 272.9383 14.34216698295296
IRIDIUM 164             
1 43577U 18061J   24075.89965512  .00000433  00000+0  14741-3 0  9994
2 43577  86.3976  40.7976 0002389  81.7117 278.4349 14.34220115295418
